sat16144
1 16144U 85094G   20046.82264227  .00000011  00000-0  21230-5 0  9992
2 16144  82.6054  63.6014 0035548 228.1497 305.2746 12.54870109573594
